sat_3_0
1 00000U 00000A   18001.00000001 -.00002182  00000-0 -36183-4 0  0010
2 00000 096.0000 090.0000 0000623 005.0000 000.0000 15.731142000010
